COMMENT,ORIGINATOR,NORAD_CAT_ID,OBJECT_NAME,OBJECT_TYPE,CLASSIFICATION_TYPE,INTLDES,EPOCH,EPOCH_MICROSECONDS,MEAN_MOTION,ECCENTRICITY,INCLINATION,RA_OF_ASC_NODE,ARG_OF_PERICENTER,MEAN_ANOMALY,EPHEMERIS_TYPE,ELEMENT_SET_NO,REV_AT_EPOCH,BSTAR,MEAN_MOTION_DOT,MEAN_MOTION_DDOT,FILE,TLE_LINE0,TLE_LINE1,TLE_LINE2,OBJECT_ID,OBJECT_NUMBER,SEMIMAJOR_AXIS,PERIOD,APOGEE,PERIGEE,DECAYED
"GENERATED VIA SPACETRACK.ORG API","18 SPCS","55100","SPACEBEE-158","PAYLOAD","U","23001CV","2023-05-13 03:45:22","6944","15.18832118","0.0017576","97.4797","193.5974","123.8719","236.4191","0","999","1978","0.0010704","0.00022361","0","3906562","0 SPACEBEE-158","1 55100U 23001CV  23133.15650471  .00022361  00000-0  10704-2 0  9996","2 55100  97.4797 193.5974 0017576 123.8719 236.4191 15.18832118 19780","2023-001CV","55100","6887.506","94.810","521.477","497.266","0"
"GENERATED VIA SPACETRACK.ORG API","18 SPCS","55100","SPACEBEE-158","PAYLOAD","U","23001CV","2023-05-13 03:45:22","6944","15.18832118","0.0017576","97.4797","193.5974","123.8719","236.4191","0","999","1978","0.0010704","0.00022361","0","3906915","0 SPACEBEE-158","1 55100U 23001CV  23133.15650471  .00022361  00000-0  10704-2 0  9996","2 55100  97.4797 193.5974 0017576 123.8719 236.4191 15.18832118 19780","2023-001CV","55100","6887.506","94.810","521.477","497.266","0"
"GENERATED VIA SPACETRACK.ORG API","18 SPCS","55100","SPACEBEE-158","PAYLOAD","U","23001CV","2023-05-13 17:59:11","510592","15.18856327","0.0017573","97.4798","194.1841","122.1462","238.148","0","999","1987","0.00093466","0.00019523","0","3907148","0 SPACEBEE-158","1 55100U 23001CV  23133.74943878  .00019523  00000-0  93466-3 0  9990","2 55100  97.4798 194.1841 0017573 122.1462 238.1480 15.18856327 19873","2023-001CV","55100","6887.433","94.808","521.401","497.195","0"
"GENERATED VIA SPACETRACK.ORG API","18 SPCS","55100","SPACEBEE-158","PAYLOAD","U","23001CV","2023-05-14 03:28:24","81024","15.188731","0.0017528","97.4796","194.5755","120.8341","239.4621","0","999","1993","0.0010348","0.00021638","0","3907744","0 SPACEBEE-158","1 55100U 23001CV  23134.14472316  .00021638  00000-0  10348-2 0  9996","2 55100  97.4796 194.5755 0017528 120.8341 239.4621 15.18873100 19936","2023-001CV","55100","6887.382","94.807","521.319","497.175","0"
"GENERATED VIA SPACETRACK.ORG API","18 SPCS","55100","SPACEBEE-158","PAYLOAD","U","23001CV","2023-05-14 22:26:48","434784","15.18893998","0.0017467","97.4797","195.358","118.4993","241.8003","0","999","2005","0.0008054","0.00016825","0","3907938","0 SPACEBEE-158","1 55100U 23001CV  23134.93528281  .00016825  00000-0  80540-3 0  9990","2 55100  97.4797 195.3580 0017467 118.4993 241.8003 15.18893998 20053","2023-001CV","55100","6887.319","94.806","521.214","497.154","0"
"GENERATED VIA SPACETRACK.ORG API","18 SPCS","55100","SPACEBEE-158","PAYLOAD","U","23001CV","2023-05-15 09:30:52","115328","15.18908154","0.0017459","97.4797","195.8143","116.9874","243.3146","0","999","2012","0.00075228","0.00015714","0","3908681","0 SPACEBEE-158","1 55100U 23001CV  23135.39643652  .00015714  00000-0  75228-3 0  9994","2 55100  97.4797 195.8143 0017459 116.9874 243.3146 15.18908154 20129","2023-001CV","55100","6887.276","94.805","521.166","497.117","0"
"GENERATED VIA SPACETRACK.ORG API","18 SPCS","55100","SPACEBEE-158","PAYLOAD","U","23001CV","2023-05-16 02:54:22","814496","15.18932716","0.0017449","97.4797","196.5315","114.6613","245.644","0","999","2023","0.00078252","0.00016362","0","3909070","0 SPACEBEE-158","1 55100U 23001CV  23136.12109739  .00016362  00000-0  78252-3 0  9999","2 55100  97.4797 196.5315 0017449 114.6613 245.6440 15.18932716 20238","2023-001CV","55100","6887.202","94.803","521.084","497.049","0"
"GENERATED VIA SPACETRACK.ORG API","18 SPCS","55100","SPACEBEE-158","PAYLOAD","U","23001CV","2023-05-16 02:54:22","814496","15.18932716","0.0017449","97.4797","196.5315","114.6613","245.644","0","999","2023","0.00078252","0.00016362","0","3909472","0 SPACEBEE-158","1 55100U 23001CV  23136.12109739  .00016362  00000-0  78252-3 0  9999","2 55100  97.4797 196.5315 0017449 114.6613 245.6440 15.18932716 20238","2023-001CV","55100","6887.202","94.803","521.084","497.049","0"
"GENERATED VIA SPACETRACK.ORG API","18 SPCS","55100","SPACEBEE-158","PAYLOAD","U","23001CV","2023-05-16 21:52:44","182272","15.18958094","0.0017461","97.4798","197.3141","112.2033","248.1056","0","999","2035","0.00071726","0.00015","0","3909742","0 SPACEBEE-158","1 55100U 23001CV  23136.91162248  .00015000  00000-0  71726-3 0  9997","2 55100  97.4798 197.3141 0017461 112.2033 248.1056 15.18958094 20350","2023-001CV","55100","6887.125","94.802","521.016","496.965","0"
"GENERATED VIA SPACETRACK.ORG API","18 SPCS","55100","SPACEBEE-158","PAYLOAD","U","23001CV","2023-05-17 16:51:04","308480","15.18984978","0.0017481","97.4795","198.0969","109.5868","250.7255","0","999","2047","0.00066778","0.00013969","0","3910437","0 SPACEBEE-158","1 55100U 23001CV  23137.70213320  .00013969  00000-0  66778-3 0  9996","2 55100  97.4795 198.0969 0017481 109.5868 250.7255 15.18984978 20473","2023-001CV","55100","6887.044","94.800","520.948","496.870","0"
"GENERATED VIA SPACETRACK.ORG API","18 SPCS","55100","SPACEBEE-158","PAYLOAD","U","23001CV","2023-05-17 21:35:39","178464","15.1899067","0.0017505","97.4795","198.2924","109.0713","251.2419","0","999","2050","0.00065912","0.0001379","0","3910633","0 SPACEBEE-158","1 55100U 23001CV  23137.89975901  .00013790  00000-0  65912-3 0  9997","2 55100  97.4795 198.2924 0017505 109.0713 251.2419 15.18990670 20505","2023-001CV","55100","6887.027","94.800","520.947","496.836","0"
"GENERATED VIA SPACETRACK.ORG API","18 SPCS","55100","SPACEBEE-158","PAYLOAD","U","23001CV","2023-05-18 03:55:05","533536","15.18999421","0.0017475","97.4797","198.5531","108.2978","252.016","0","999","2054","0.00065638","0.00013735","0","3911221","0 SPACEBEE-158","1 55100U 23001CV  23138.16325849  .00013735  00000-0  65638-3 0  9992","2 55100  97.4797 198.5531 0017475 108.2978 252.0160 15.18999421 20543","2023-001CV","55100","6887.000","94.799","520.900","496.830","0"
"GENERATED VIA SPACETRACK.ORG API","18 SPCS","55100","SPACEBEE-158","PAYLOAD","U","23001CV","2023-05-18 14:59:06","483840","15.19011054","0.0017472","97.4795","199.0096","106.8639","253.4513","0","999","2061","0.0006195","0.00012962","0","3911388","0 SPACEBEE-158","1 55100U 23001CV  23138.62438060  .00012962  00000-0  61950-3 0  9997","2 55100  97.4795 199.0096 0017472 106.8639 253.4513 15.19011054 20611","2023-001CV","55100","6886.965","94.799","520.863","496.797","0"
"GENERATED VIA SPACETRACK.ORG API","18 SPCS","55100","SPACEBEE-158","PAYLOAD","U","23001CV","2023-05-19 02:03:07","171488","15.19021433","0.0017469","97.4794","199.466","105.4329","254.8836","0","999","2068","0.00058018","0.00012138","0","3911565","0 SPACEBEE-158","1 55100U 23001CV  23139.08549967  .00012138  00000-0  58018-3 0  9993","2 55100  97.4794 199.4660 0017469 105.4329 254.8836 15.19021433 20680","2023-001CV","55100","6886.934","94.798","520.830","496.768","0"
"GENERATED VIA SPACETRACK.ORG API","18 SPCS","55100","SPACEBEE-158","PAYLOAD","U","23001CV","2023-05-19 03:37:58","674720","15.19022533","0.0017479","97.4793","199.5312","105.2301","255.0868","0","999","2069","0.00055667","0.00011643","0","3912278","0 SPACEBEE-158","1 55100U 23001CV  23139.15137355  .00011643  00000-0  55667-3 0  9992","2 55100  97.4793 199.5312 0017479 105.2301 255.0868 15.19022533 20694","2023-001CV","55100","6886.930","94.798","520.833","496.758","0"
"GENERATED VIA SPACETRACK.ORG API","18 SPCS","55100","SPACEBEE-158","PAYLOAD","U","23001CV","2023-05-20 03:20:50","697024","15.19046422","0.0017411","97.4788","200.5094","102.1145","258.2042","0","999","2084","0.00071661","0.00015024","0","3912781","0 SPACEBEE-158","1 55100U 23001CV  23140.13947566  .00015024  00000-0  71661-3 0  9994","2 55100  97.4788 200.5094 0017411 102.1145 258.2042 15.19046422 20845","2023-001CV","55100","6886.858","94.796","520.714","496.733","0"
"GENERATED VIA SPACETRACK.ORG API","18 SPCS","55100","SPACEBEE-158","PAYLOAD","U","23001CV","2023-05-20 17:34:33","39840","15.19068435","0.0017324","97.4786","201.0965","100.2827","260.0362","0","999","2093","0.00091606","0.00019248","0","3913175","0 SPACEBEE-158","1 55100U 23001CV  23140.73232685  .00019248  00000-0  91606-3 0  9992","2 55100  97.4786 201.0965 0017324 100.2827 260.0362 15.19068435 20939","2023-001CV","55100","6886.792","94.795","520.587","496.726","0"
"GENERATED VIA SPACETRACK.ORG API","18 SPCS","55100","SPACEBEE-158","PAYLOAD","U","23001CV","2023-05-21 03:03:40","675104","15.19086681","0.0017313","97.4784","201.4877","99.035","261.2845","0","999","2099","0.00094678","0.00019907","0","3913631","0 SPACEBEE-158","1 55100U 23001CV  23141.12755411  .00019907  00000-0  94678-3 0  9997","2 55100  97.4784 201.4877 0017313  99.0350 261.2845 15.19086681 20995","2023-001CV","55100","6886.737","94.794","520.525","496.679","0"
"GENERATED VIA SPACETRACK.ORG API","18 SPCS","55100","SPACEBEE-158","PAYLOAD","U","23001CV","2023-05-21 03:03:40","675104","15.19086681","0.0017313","97.4784","201.4877","99.035","261.2845","0","999","2099","0.00094678","0.00019907","0","3913738","0 SPACEBEE-158","1 55100U 23001CV  23141.12755411  .00019907  00000-0  94678-3 0  9997","2 55100  97.4784 201.4877 0017313  99.0350 261.2845 15.19086681 20995","2023-001CV","55100","6886.737","94.794","520.525","496.679","0"
"GENERATED VIA SPACETRACK.ORG API","18 SPCS","55100","SPACEBEE-158","PAYLOAD","U","23001CV","2023-05-21 22:01:54","813792","15.19121097","0.0017278","97.4783","202.2703","96.5228","263.7974","0","999","2111","0.00090037","0.00018944","0","3914061","0 SPACEBEE-158","1 55100U 23001CV  23141.91799553  .00018944  00000-0  90037-3 0  9994","2 55100  97.4783 202.2703 0017278  96.5228 263.7974 15.19121097 21113","2023-001CV","55100","6886.633","94.792","520.396","496.599","0"
